COSMOS 2425 (716)       
1 29670U 06062A   21217.52479954  .00000088  00000-0  00000-0 0  9992
2 29670  64.8264 253.7928 0023949 340.2621  19.2267  2.13115688113712
COSMOS 2433 (720)       
1 32275U 07052A   21217.10146917 -.00000049  00000-0  00000-0 0  9999
2 32275  66.0666  15.1693 0001841 182.9378  22.9674  2.13104136107221
COSMOS 2432 (719)       
1 32276U 07052B   21217.41366096 -.00000048  00000-0  00000-0 0  9995
2 32276  66.0824  15.2542 0008067 339.9067  54.6755  2.13103450107239
COSMOS 2434 (721)       
1 32393U 07065A   21217.73404336  .00000090  00000-0  00000-0 0  9990
2 32393  64.4484 252.2196 0001310 150.0391  69.7005  2.13103078105944
COSMOS 2436 (723)       
1 32395U 07065C   21217.65621534  .00000090  00000-0  00000-0 0  9994
2 32395  64.4577 252.2778 0013895 351.0917 305.0226  2.13102983105870
COSMOS 2456 (730)       
1 36111U 09070A   21217.51720855 -.00000020  00000-0  00000-0 0  9997
2 36111  64.2836 131.8991 0004639 313.8936 269.3989  2.13099359 90602
COSMOS 2457 (733)       
1 36112U 09070B   21217.95178280 -.00000016  00000-0  00000-0 0  9990
2 36112  64.2672 131.7687 0004482 174.9974 146.4602  2.13101568 90610
COSMOS 2459 (731)       
1 36400U 10007A   21217.72322080 -.00000050  00000-0  00000-0 0  9994
2 36400  65.9658  14.0663 0025077 352.0081 189.1704  2.13108549 88957
COSMOS 2461 (735)       
1 36401U 10007B   21217.72322080 -.00000050  00000-0  00000-0 0  9995
2 36401  65.9615  14.0316 0019543  14.2900 166.4876  2.13103691 88966
COSMOS 2460 (732)       
1 36402U 10007C   21217.55555334 -.00000050  00000-0  00000-0 0  9997
2 36402  65.9484  13.9927 0002586 109.0701 248.3723  2.13106691 88951
COSMOS 2464 (736)       
1 37139U 10041C   21217.52065942  .00000090  00000-0  00000-0 0  9994
2 37139  64.0483 251.4600 0026421   6.3027 270.2847  2.13100746 85019
COSMOS 2471 (701K)      
1 37372U 11009A   21217.88087662 -.00000050  00000-0  00000-0 0  9997
2 37372  65.9409  13.9086 0015047 224.7808 163.3898  2.13062129 81241
COSMOS 2476 (744)       
1 37867U 11064A   21217.63711181 -.00000019  00000-0  00000-0 0  9995
2 37867  64.5786 133.1284 0021115 239.2666 338.7789  2.13101876 75955
COSMOS 2477 (745)       
1 37868U 11064B   21217.34681545 -.00000021  00000-0  00000-0 0  9997
2 37868  64.5866 133.1985 0018516 239.9660 293.6728  2.13101798 75905
COSMOS 2475 (743)       
1 37869U 11064C   21217.87919862 -.00000016  00000-0  00000-0 0  9996
2 37869  64.5934 133.1848 0022693 259.1287 280.6824  2.13102162 75921
COSMOS 2485 (747)       
1 39155U 13019A   21217.58358587 -.00000019  00000-0  00000-0 0  9990
2 39155  64.7449 133.4890 0021596 234.7555 346.6940  2.13102029 64429
COSMOS 2492 (754)       
1 39620U 14012A   21217.75518345 -.00000050  00000-0  00000-0 0  9995
2 39620  65.8354  13.7115 0011029 331.6461  56.2052  2.13103183 57383
COSMOS 2500 (755)       
1 40001U 14032A   21217.48075589 -.00000051  00000-0  00000-0 0  9991
2 40001  65.7763  13.6056 0006567 181.1758 215.6689  2.13102438 55592
COSMOS 2501 (702K)      
1 40315U 14075A   21217.86629330  .00000089  00000-0  00000-0 0  9997
2 40315  63.7595 252.2374 0018750 212.2496 286.9262  2.13101426 52004
COSMOS 2514 (751)       
1 41330U 16008A   21217.68705157 -.00000051  00000-0  00000-0 0  9995
2 41330  65.5780  13.3685 0009612 198.2986 180.0327  2.13102844 42766
COSMOS 2516 (753)       
1 41554U 16032A   21217.60068400  .00000089  00000-0  00000-0 0  9995
2 41554  63.9849 252.4335 0015643 220.3706 348.0077  2.13107246 40361
COSMOS 2522 (752)       
1 42939U 17055A   21217.62442084  .00000089  00000-0  00000-0 0  9995
2 42939  64.2189 252.7347 0009762 244.0305 204.6614  2.13101969 30122
COSMOS 2527 (756)       
1 43508U 18053A   21217.63019051 -.00000018  00000-0  00000-0 0  9995
2 43508  64.9086 133.4219 0008192 236.7248 248.5031  2.13102525 24415
COSMOS 2529 (757)       
1 43687U 18086A   21217.92956189  .00000089  00000-0  00000-0 0  9990
2 43687  64.4320 252.9555 0011626 264.1413  14.2139  2.13102150 21434
COSMOS 2534 (758)       
1 44299U 19030A   21217.67098434  .00000089  00000-0  00000-0 0  9992
2 44299  64.5032 252.8210 0014330 282.1454 292.6511  2.13102128 17078
COSMOS 2544 (759)       
1 44850U 19088A   21217.72919588 -.00000018  00000-0  00000-0 0  9999
2 44850  64.8928 133.2770 0012641 264.1257 340.7716  2.13102268 12842
COSMOS 2545 (760)       
1 45358U 20018A   21217.40176833 -.00000052  00000-0  00000-0 0  9999
2 45358  64.9108  14.2466 0007069 236.5577 327.1022  2.13102741 10790
